[{"OBJECT_NAME":"STARLINK-1106","OBJECT_ID":"2020-001K","EPOCH":"2024-01-28T19:06:42.919776","MEAN_MOTION":15.22627046,"ECCENTRICITY":0.0001995,"INCLINATION":53.0308,"RA_OF_ASC_NODE":181.3328,"ARG_OF_PERICENTER":112.4425,"MEAN_ANOMALY":247.6783,"EPHEMERIS_TYPE":0,"CLASSIFICATION_TYPE":"U","NORAD_CAT_ID":44923,"ELEMENT_SET_NO":999,"REV_AT_EPOCH":22402,"BSTAR":0.00042182,"MEAN_MOTION_DOT":9.618e-5,"MEAN_MOTION_DDOT":0},{"OBJECT_NAME":"STARLINK-1111","OBJECT_ID":"2020-001L","EPOCH":"2024-01-28T20:44:50.340192","MEAN_MOTION":15.0639745,"ECCENTRICITY":0.0001435,"INCLINATION":53.0539,"RA_OF_ASC_NODE":207.0059,"ARG_OF_PERICENTER":92.1123,"MEAN_ANOMALY":268.003,"EPHEMERIS_TYPE":0,"CLASSIFICATION_TYPE":"U","NORAD_CAT_ID":44924,"ELEMENT_SET_NO":999,"REV_AT_EPOCH":22366,"BSTAR":3.2554e-5,"MEAN_MOTION_DOT":2.03e-6,"MEAN_MOTION_DDOT":0},{"OBJECT_NAME":"STARLINK-1112","OBJECT_ID":"2020-001M","EPOCH":"2024-01-29T11:25:55.280064","MEAN_MOTION":15.0640013,"ECCENTRICITY":0.0001517,"INCLINATION":53.0527,"RA_OF_ASC_NODE":204.2412,"ARG_OF_PERICENTER":91.0433,"MEAN_ANOMALY":269.073,"EPHEMERIS_TYPE":0,"CLASSIFICATION_TYPE":"U","NORAD_CAT_ID":44925,"ELEMENT_SET_NO":999,"REV_AT_EPOCH":22375,"BSTAR":4.8708e-5,"MEAN_MOTION_DOT":4.44e-6,"MEAN_MOTION_DDOT":0},{"OBJECT_NAME":"STARLINK-1113","OBJECT_ID":"2020-001N","EPOCH":"2024-01-28T19:25:14.085984","MEAN_MOTION":15.06397119,"ECCENTRICITY":0.00014,"INCLINATION":53.0544,"RA_OF_ASC_NODE":207.3217,"ARG_OF_PERICENTER":100.3071,"MEAN_ANOMALY":259.8076,"EPHEMERIS_TYPE":0,"CLASSIFICATION_TYPE":"U","NORAD_CAT_ID":44926,"ELEMENT_SET_NO":999,"REV_AT_EPOCH":22434,"BSTAR":8.6047e-5,"MEAN_MOTION_DOT":1.0e-5,"MEAN_MOTION_DDOT":0},{"OBJECT_NAME":"STARLINK-1114","OBJECT_ID":"2020-001P","EPOCH":"2024-01-29T11:41:52.077120","MEAN_MOTION":15.06393124,"ECCENTRICITY":0.0001298,"INCLINATION":53.0537,"RA_OF_ASC_NODE":204.1935,"ARG_OF_PERICENTER":91.5339,"MEAN_ANOMALY":268.5798,"EPHEMERIS_TYPE":0,"CLASSIFICATION_TYPE":"U","NORAD_CAT_ID":44927,"ELEMENT_SET_NO":999,"REV_AT_EPOCH":22376,"BSTAR":0.00017619,"MEAN_MOTION_DOT":2.343e-5,"MEAN_MOTION_DDOT":0},{"OBJECT_NAME":"STARLINK-1119","OBJECT_ID":"2020-001Q","EPOCH":"2024-01-28T19:47:41.483616","MEAN_MOTION":15.63635437,"ECCENTRICITY":0.0001831,"INCLINATION":53.0534,"RA_OF_ASC_NODE":181.0241,"ARG_OF_PERICENTER":97.9951,"MEAN_ANOMALY":262.1271,"EPHEMERIS_TYPE":0,"CLASSIFICATION_TYPE":"U","NORAD_CAT_ID":44928,"ELEMENT_SET_NO":999,"REV_AT_EPOCH":22403,"BSTAR":5.1084e-5,"MEAN_MOTION_DOT":4.303e-5,"MEAN_MOTION_DDOT":0},{"OBJECT_NAME":"STARLINK-1121","OBJECT_ID":"2020-001R","EPOCH":"2024-01-29T14:00:01.000224","MEAN_MOTION":15.78596167,"ECCENTRICITY":0.0004026,"INCLINATION":53.0478,"RA_OF_ASC_NODE":161.6376,"ARG_OF_PERICENTER":319.3669,"MEAN_ANOMALY":286.8475,"EPHEMERIS_TYPE":0,"CLASSIFICATION_TYPE":"U","NORAD_CAT_ID":44929,"ELEMENT_SET_NO":999,"REV_AT_EPOCH":22435,"BSTAR":0.0011041,"MEAN_MOTION_DOT":0.002005,"MEAN_MOTION_DDOT":0},{"OBJECT_NAME":"STARLINK-1123","OBJECT_ID":"2020-001S","EPOCH":"2024-01-28T21:43:13.115424","MEAN_MOTION":15.06398199,"ECCENTRICITY":9.92e-5,"INCLINATION":53.0525,"RA_OF_ASC_NODE":206.8061,"ARG_OF_PERICENTER":120.3037,"MEAN_ANOMALY":239.805,"EPHEMERIS_TYPE":0,"CLASSIFICATION_TYPE":"U","NORAD_CAT_ID":44930,"ELEMENT_SET_NO":999,"REV_AT_EPOCH":22367,"BSTAR":0.00023738,"MEAN_MOTION_DOT":3.256e-5,"MEAN_MOTION_DDOT":0},{"OBJECT_NAME":"STARLINK-1128","OBJECT_ID":"2020-001T","EPOCH":"2024-01-28T17:35:37.965984","MEAN_MOTION":15.1985806,"ECCENTRICITY":0.0002047,"INCLINATION":53.0499,"RA_OF_ASC_NODE":178.8312,"ARG_OF_PERICENTER":46.6531,"MEAN_ANOMALY":313.4635,"EPHEMERIS_TYPE":0,"CLASSIFICATION_TYPE":"U","NORAD_CAT_ID":44931,"ELEMENT_SET_NO":999,"REV_AT_EPOCH":22479,"BSTAR":0.0032385,"MEAN_MOTION_DOT":0.00070704,"MEAN_MOTION_DDOT":0},{"OBJECT_NAME":"STARLINK-1130 (DARKSAT)","OBJECT_ID":"2020-001U","EPOCH":"2024-01-28T18:16:13.128384","MEAN_MOTION":15.06401311,"ECCENTRICITY":0.0001418,"INCLINATION":53.0542,"RA_OF_ASC_NODE":207.4521,"ARG_OF_PERICENTER":86.6835,"MEAN_ANOMALY":273.4316,"EPHEMERIS_TYPE":0,"CLASSIFICATION_TYPE":"U","NORAD_CAT_ID":44932,"ELEMENT_SET_NO":999,"REV_AT_EPOCH":22488,"BSTAR":0.00012049,"MEAN_MOTION_DOT":1.514e-5,"MEAN_MOTION_DDOT":0},{"OBJECT_NAME":"STARLINK-1144","OBJECT_ID":"2020-001V","EPOCH":"2024-01-29T12:24:19.444608","MEAN_MOTION":15.06385741,"ECCENTRICITY":0.00012,"INCLINATION":53.0538,"RA_OF_ASC_NODE":204.0609,"ARG_OF_PERICENTER":88.5952,"MEAN_ANOMALY":271.5174,"EPHEMERIS_TYPE":0,"CLASSIFICATION_TYPE":"U","NORAD_CAT_ID":44933,"ELEMENT_SET_NO":999,"REV_AT_EPOCH":22505,"BSTAR":-5.209e-5,"MEAN_MOTION_DOT":-1.057e-5,"MEAN_MOTION_DDOT":0},{"OBJECT_NAME":"STARLINK-1071","OBJECT_ID":"2020-001W","EPOCH":"2024-01-29T09:31:47.664480","MEAN_MOTION":15.06403526,"ECCENTRICITY":0.000156,"INCLINATION":53.0537,"RA_OF_ASC_NODE":184.6005,"ARG_OF_PERICENTER":95.9075,"MEAN_ANOMALY":264.2091,"EPHEMERIS_TYPE":0,"CLASSIFICATION_TYPE":"U","NORAD_CAT_ID":44934,"ELEMENT_SET_NO":999,"REV_AT_EPOCH":22402,"BSTAR":0.00015006,"MEAN_MOTION_DOT":1.955e-5,"MEAN_MOTION_DDOT":0},{"OBJECT_NAME":"STARLINK-1079","OBJECT_ID":"2020-001Z","EPOCH":"2024-01-29T10:19:45.473088","MEAN_MOTION":15.07177705,"ECCENTRICITY":0.0001248,"INCLINATION":53.0539,"RA_OF_ASC_NODE":184.335,"ARG_OF_PERICENTER":108.9604,"MEAN_ANOMALY":251.1521,"EPHEMERIS_TYPE":0,"CLASSIFICATION_TYPE":"U","NORAD_CAT_ID":44937,"ELEMENT_SET_NO":999,"REV_AT_EPOCH":22403,"BSTAR":0.00051507,"MEAN_MOTION_DOT":7.56e-5,"MEAN_MOTION_DDOT":0},{"OBJECT_NAME":"STARLINK-1082","OBJECT_ID":"2020-001AA","EPOCH":"2024-01-28T17:52:19.740288","MEAN_MOTION":15.06421746,"ECCENTRICITY":0.0001088,"INCLINATION":53.0529,"RA_OF_ASC_NODE":187.5261,"ARG_OF_PERICENTER":83.056,"MEAN_ANOMALY":277.0553,"EPHEMERIS_TYPE":0,"CLASSIFICATION_TYPE":"U","NORAD_CAT_ID":44938,"ELEMENT_SET_NO":999,"REV_AT_EPOCH":22392,"BSTAR":0.00035245,"MEAN_MOTION_DOT":4.975e-5,"MEAN_MOTION_DDOT":0},{"OBJECT_NAME":"STARLINK-1083","OBJECT_ID":"2020-001AB","EPOCH":"2024-01-28T19:38:28.974624","MEAN_MOTION":15.06400982,"ECCENTRICITY":0.000117,"INCLINATION":53.0538,"RA_OF_ASC_NODE":187.194,"ARG_OF_PERICENTER":93.1298,"MEAN_ANOMALY":266.9825,"EPHEMERIS_TYPE":0,"CLASSIFICATION_TYPE":"U","NORAD_CAT_ID":44939,"ELEMENT_SET_NO":999,"REV_AT_EPOCH":22393,"BSTAR":4.5869e-5,"MEAN_MOTION_DOT":4.02e-6,"MEAN_MOTION_DDOT":0},{"OBJECT_NAME":"STARLINK-1091","OBJECT_ID":"2020-001AC","EPOCH":"2024-01-29T10:14:17.877984","MEAN_MOTION":15.06387833,"ECCENTRICITY":0.0001096,"INCLINATION":53.0537,"RA_OF_ASC_NODE":184.4618,"ARG_OF_PERICENTER":97.2153,"MEAN_ANOMALY":262.896,"EPHEMERIS_TYPE":0,"CLASSIFICATION_TYPE":"U","NORAD_CAT_ID":44940,"ELEMENT_SET_NO":999,"REV_AT_EPOCH":22402,"BSTAR":0.00019099,"MEAN_MOTION_DOT":2.564e-5,"MEAN_MOTION_DDOT":0},{"OBJECT_NAME":"STARLINK-1094","OBJECT_ID":"2020-001AD","EPOCH":"2024-01-29T10:46:06.542976","MEAN_MOTION":15.06401678,"ECCENTRICITY":0.0001391,"INCLINATION":53.0533,"RA_OF_ASC_NODE":184.3676,"ARG_OF_PERICENTER":69.7839,"MEAN_ANOMALY":290.33,"EPHEMERIS_TYPE":0,"CLASSIFICATION_TYPE":"U","NORAD_CAT_ID":44941,"ELEMENT_SET_NO":999,"REV_AT_EPOCH":22403,"BSTAR":7.5664e-5,"MEAN_MOTION_DOT":8.46e-6,"MEAN_MOTION_DDOT":0}]
