44923,STARLINK-1106,2020,94.57,227.0,P,53.03,Active,1,LEO,USA,USA,Commercial,Communications,Falcon,1 44923U 20001K   24028.79633009  .00009618  00000+0  42182-3 0  9991,2 44923  53.0308 181.3328 0001995 112.4425 247.6783 15.22627046224024,15.22627046,0.0001995,LEO
44924,STARLINK-1111,2020,95.59,227.0,+,53.05,Active,1,LEO,USA,USA,Commercial,Communications,Falcon,1 44924U 20001L   24028.86447153  .00000203  00000+0  32554-4 0  9997,2 44924  53.0539 207.0059 0001435  92.1123 268.0030 15.06397450223662,15.0639745,0.0001435,LEO
44925,STARLINK-1112,2020,95.59,227.0,+,53.05,Active,1,LEO,USA,USA,Commercial,Communications,Falcon,1 44925U 20001M   24029.47633426  .00000444  00000+0  48708-4 0  9991,2 44925  53.0527 204.2412 0001517  91.0433 269.0730 15.06400130223753,15.0640013,0.0001517,LEO
44926,STARLINK-1113,2020,95.59,227.0,+,53.05,Active,1,LEO,USA,USA,Commercial,Communications,Falcon,1 44926U 20001N   24028.80919081  .00001000  00000+0  86047-4 0  9999,2 44926  53.0544 207.3217 0001400 100.3071 259.8076 15.06397119224341,15.06397119,0.00014,LEO
44927,STARLINK-1114,2020,95.59,227.0,+,53.05,Active,1,LEO,USA,USA,Commercial,Communications,Falcon,1 44927U 20001P   24029.48740830  .00002343  00000+0  17619-3 0  9998,2 44927  53.0537 204.1935 0001298  91.5339 268.5798 15.06393124223764,15.06393124,0.0001298,LEO
44928,STARLINK-1119,2020,92.09,227.0,P,53.05,Active,1,LEO,USA,USA,Commercial,Communications,Falcon,1 44928U 20001Q   24028.82478569  .00004303  00000+0  51084-4 0  9996,2 44928  53.0534 181.0241 0001831  97.9951 262.1271 15.63635437224034,15.63635437,0.0001831,LEO
44929,STARLINK-1121,2020,91.26,227.0,P,53.05,Active,1,LEO,USA,USA,Commercial,Communications,Falcon,1 44929U 20001R   24029.58334491  .00200500  00000+0  11041-2 0  9990,2 44929  53.0478 161.6376 0004026 319.3669 286.8475 15.78596167224357,15.78596167,0.0004026,LEO
44930,STARLINK-1123,2020,95.59,227.0,+,53.05,Active,1,LEO,USA,USA,Commercial,Communications,Falcon,1 44930U 20001S   24028.90501291  .00003256  00000+0  23738-3 0  9997,2 44930  53.0525 206.8061 0000992 120.3037 239.8050 15.06398199223679,15.06398199,9.92e-05,LEO
44931,STARLINK-1128,2020,94.76,227.0,P,53.05,Active,1,LEO,USA,USA,Commercial,Communications,Falcon,1 44931U 20001T   24028.73307831  .00070704  00000+0  32385-2 0  9992,2 44931  53.0499 178.8312 0002047  46.6531 313.4635 15.19858060224793,15.1985806,0.0002047,LEO
44932,STARLINK-1130 (DARKSAT),2020,95.59,227.0,+,53.05,Active,1,LEO,USA,USA,Commercial,Communications,Falcon,1 44932U 20001U   24028.76126306  .00001514  00000+0  12049-3 0  9991,2 44932  53.0542 207.4521 0001418  86.6835 273.4316 15.06401311224886,15.06401311,0.0001418,LEO
44933,STARLINK-1144,2020,95.59,227.0,+,53.05,Active,1,LEO,USA,USA,Commercial,Communications,Falcon,1 44933U 20001V   24029.51689172 -.00001057  00000+0 -52090-4 0  9996,2 44933  53.0538 204.0609 0001200  88.5952 271.5174 15.06385741225051,15.06385741,0.00012,LEO
44934,STARLINK-1071,2020,95.59,227.0,+,53.05,Active,1,LEO,USA,USA,Commercial,Communications,Falcon,1 44934U 20001W   24029.39707945  .00001955  00000+0  15006-3 0  9992,2 44934  53.0537 184.6005 0001560  95.9075 264.2091 15.06403526224026,15.06403526,0.000156,LEO
44937,STARLINK-1079,2020,95.55,227.0,+,53.05,Active,1,LEO,USA,USA,Commercial,Communications,Falcon,1 44937U 20001Z   24029.43038742  .00007560  00000+0  51507-3 0  9996,2 44937  53.0539 184.3350 0001248 108.9604 251.1521 15.07177705224039,15.07177705,0.0001248,LEO
44938,STARLINK-1082,2020,95.59,227.0,+,53.05,Active,1,LEO,USA,USA,Commercial,Communications,Falcon,1 44938U 20001AA  24028.74467292  .00004975  00000+0  35245-3 0  9994,2 44938  53.0529 187.5261 0001088  83.0560 277.0553 15.06421746223926,15.06421746,0.0001088,LEO
44939,STARLINK-1083,2020,95.59,227.0,+,53.05,Active,1,LEO,USA,USA,Commercial,Communications,Falcon,1 44939U 20001AB  24028.81839091  .00000402  00000+0  45869-4 0  9998,2 44939  53.0538 187.1940 0001170  93.1298 266.9825 15.06400982223938,15.06400982,0.000117,LEO
44940,STARLINK-1091,2020,95.59,227.0,+,53.05,Active,1,LEO,USA,USA,Commercial,Communications,Falcon,1 44940U 20001AC  24029.42659581  .00002564  00000+0  19099-3 0  9998,2 44940  53.0537 184.4618 0001096  97.2153 262.8960 15.06387833224028,15.06387833,0.0001096,LEO
44941,STARLINK-1094,2020,95.59,227.0,+,53.05,Active,1,LEO,USA,USA,Commercial,Communications,Falcon,1 44941U 20001AD  24029.44868684  .00000846  00000+0  75664-4 0  9999,2 44941  53.0533 184.3676 0001391  69.7839 290.3300 15.06401678224030,15.06401678,0.0001391,LEO
